     2.100          NAVIGATION                              RINEX VERSION / TYPE
fic2rin                                 08/28/2013 00:18:08 PGM / RUN BY / DATE
                                                            END OF HEADER
28 13  8 27 18  0  0.0  .287670176476D-03  .306954461848D-11  .000000000000D+00
     .800000000000D+02 -.444062500000D+02  .384551732409D-08 -.253030718616D+01
    -.236928462982D-05  .186917735264D-01  .820867717266D-05  .515365371132D+04
     .237600000000D+06  .240281224251D-06  .115177539312D+01  .707805156708D-07
     .984018903583D+00  .226406250000D+03 -.176408332033D+01 -.745316759720D-08
     .263225250103D-09  .100000000000D+01  .175500000000D+04  .000000000000D+00
     .340000000000D+01  .000000000000D+00 -.107102096081D-07  .800000000000D+02
     .230406000000D+06  .400000000000D+01
29 13  8 27 18  0  0.0  .465744640678D-03  .318323145621D-11  .000000000000D+00
     .490000000000D+02 -.220000000000D+02  .465447959204D-08 -.516304245710D+00
    -.103004276752D-05  .153678667266D-02  .735186040401D-05  .515359133148D+04
     .237600000000D+06  .931322574615D-07  .219049816528D+01 -.931322574615D-08
     .966803778092D+00  .241406250000D+03 -.970139364439D+00 -.811748098281D-08
     .304298389535D-09  .100000000000D+01  .175500000000D+04  .000000000000D+00
     .240000000000D+01  .000000000000D+00 -.931322574615D-08  .490000000000D+02
     .230406000000D+06  .400000000000D+01
31 13  8 27 18  0  0.0  .324483960867D-03  .909494701773D-12  .000000000000D+00
     .310000000000D+02 -.950000000000D+01  .415124434456D-08  .181095435100D+00
    -.536441802979D-06  .788943690713D-02  .483542680740D-05  .515365612984D+04
     .237600000000D+06  .484287738800D-07  .726549354897D-01 -.931322574615D-07
     .980298095796D+00  .292781250000D+03 -.735435669368D+00 -.816891169653D-08
    -.375015620906D-10  .100000000000D+01  .175500000000D+04  .000000000000D+00
     .240000000000D+01  .000000000000D+00 -.130385160446D-07  .310000000000D+02
     .230406000000D+06  .400000000000D+01
32 13  8 27 18  0  0.0 -.552536919713D-03  .227373675443D-11  .000000000000D+00
     .970000000000D+02  .293437500000D+02  .480912889095D-08  .645518737955D+00
     .138767063618D-05  .115903536789D-01  .874139368534D-05  .515361216927D+04
     .237600000000D+06  .247731804848D-06 -.196192154710D+01 -.130385160446D-07
     .948640342289D+00  .202312500000D+03 -.310587867151D+00 -.821391357104D-08
    -.207151485834D-09  .100000000000D+01  .175500000000D+04  .000000000000D+00
     .240000000000D+01  .000000000000D+00 -.279396772385D-08  .970000000000D+02
     .230406000000D+06  .400000000000D+01
26 13  8 27 17 59 44.0  .162023585290D-03  .177351466846D-10  .000000000000D+00
     .160000000000D+02  .691562500000D+02  .413731519293D-08  .170484822392D+01
     .320188701153D-05  .210455210181D-01  .610947608948D-05  .515368935204D+04
     .237584000000D+06 -.154599547386D-06 -.906149392211D+00 -.510364770889D-06
     .977801808959D+00  .271031250000D+03  .124988473161D+01 -.802390565645D-08
     .109290266664D-09  .100000000000D+01  .175500000000D+04  .000000000000D+00
     .240000000000D+01  .000000000000D+00 -.558793544769D-08  .160000000000D+02
     .231696000000D+06  .400000000000D+01
 8 13  8 27 17 59 28.0  .816863030195D-05  .227373675443D-12  .000000000000D+00
     .330000000000D+02 -.229687500000D+02  .379015787529D-08 -.429920924161D+00
    -.107660889626D-05  .133637203835D-01  .536069273949D-05  .515369677734D+04
     .237568000000D+06  .182539224625D-06  .160981240463D+00  .763684511185D-07
     .998191670027D+00  .292062500000D+03 -.284639753586D+01 -.798211820155D-08
    -.414302971667D-10  .100000000000D+01  .175500000000D+04  .000000000000D+00
     .240000000000D+01  .000000000000D+00 -.372529029846D-08  .330000000000D+02
     .236946000000D+06  .400000000000D+01
 8 13  8 27 19 59 28.0  .817002728581D-05  .227373675443D-12  .000000000000D+00
     .340000000000D+02 -.130312500000D+02  .365550940950D-08  .620214260653D+00
    -.592321157455D-06  .133653486846D-01  .518560409546D-05  .515369997787D+04
     .244768000000D+06  .782310962677D-07  .160924429503D+00  .262632966042D-06
     .998191579326D+00  .298312500000D+03 -.284637262090D+01 -.787532803902D-08
    -.121433629627D-09  .100000000000D+01  .175500000000D+04  .000000000000D+00
     .240000000000D+01  .000000000000D+00 -.372529029846D-08  .340000000000D+02
     .237606000000D+06  .400000000000D+01
26 13  8 27 19 59 44.0  .162151176482D-03  .177351466846D-10  .000000000000D+00
     .320000000000D+02  .687812500000D+02  .394873590927D-08  .275499139773D+01
     .344589352608D-05  .210454420885D-01  .558793544769D-05  .515369016266D+04
     .244784000000D+06  .210478901863D-06 -.906204232621D+00 -.104308128357D-06
     .977804281290D+00  .276031250000D+03  .124990817633D+01 -.755102881637D-08
    -.107147320259D-11  .100000000000D+01  .175500000000D+04  .000000000000D+00
     .240000000000D+01  .000000000000D+00 -.558793544769D-08  .320000000000D+02
     .237606000000D+06  .400000000000D+01
 1 13  8 27 20  0  0.0  .681071542203D-04  .443378667114D-11  .000000000000D+00
     .640000000000D+02 -.200625000000D+02  .484948771491D-08  .178572172346D+01
    -.940635800362D-06  .225937552750D-02  .728480517864D-05  .515368930054D+04
     .244800000000D+06 -.745058059692D-08 -.309281455998D+01  .128522515297D-06
     .960761573862D+00  .238781250000D+03  .341479673325D+00 -.816534011919D-08
    -.871464871438D-10  .100000000000D+01  .175500000000D+04  .000000000000D+00
     .240000000000D+01  .000000000000D+00  .838190317154D-08  .640000000000D+02
     .237606000000D+06  .400000000000D+01
 2 13  8 27 20  0  0.0  .448556151241D-03  .181898940355D-11  .000000000000D+00
     .720000000000D+02 -.278125000000D+02  .516307220554D-08  .258150205701D+01
    -.159256160259D-05  .125504502794D-01  .725314021111D-05  .515371222305D+04
     .244800000000D+06 -.160187482834D-06 -.311646532543D+01 -.176951289177D-06
     .939269902876D+00  .228500000000D+03 -.256449928139D+01 -.812855287257D-08
    -.145720355552D-09  .100000000000D+01  .175500000000D+04  .000000000000D+00
     .240000000000D+01  .000000000000D+00 -.172294676304D-07  .720000000000D+02
     .237606000000D+06  .400000000000D+01
 3 13  8 27 20  0  0.0  .251693185419D-03  .488853402203D-11  .000000000000D+00
     .180000000000D+02 -.284375000000D+02  .513021369399D-08  .274293460916D+01
    -.160187482834D-05  .166858313605D-01  .732019543648D-05  .515371937180D+04
     .244800000000D+06  .158324837685D-06  .199579356902D+01 -.217929482460D-06
     .935273024893D+00  .223093750000D+03  .132450837155D+01 -.802854870699D-08
     .260010830495D-09  .100000000000D+01  .175500000000D+04  .000000000000D+00
     .240000000000D+01  .000000000000D+00 -.465661287308D-08  .180000000000D+02
     .237606000000D+06  .400000000000D+01
 4 13  8 27 20  0  0.0  .311492942274D-03  .102318153949D-10  .000000000000D+00
     .360000000000D+02 -.206250000000D+02  .537772400379D-08 -.450153498129D+00
    -.944361090660D-06  .104865732137D-01  .692531466484D-05  .515358975220D+04
     .244800000000D+06 -.856816768646D-07 -.310012628745D+01  .856816768646D-07
     .938303143704D+00  .233218750000D+03  .101013622645D+01 -.858285751047D-08
    -.166792661870D-09  .100000000000D+01  .175500000000D+04  .000000000000D+00
     .240000000000D+01  .000000000000D+00 -.605359673500D-08  .360000000000D+02
     .237606000000D+06  .400000000000D+01
 5 13  8 27 20  0  0.0 -.399650074542D-03 -.113686837722D-12  .000000000000D+00
     .520000000000D+02  .319062500000D+02  .475412659988D-08 -.142547118588D+01
     .162981450558D-05  .319235632196D-02  .911206007004D-05  .515368795395D+04
     .244800000000D+06  .316649675369D-07 -.205087263805D+01 -.502914190292D-07
     .948163492438D+00  .198843750000D+03  .258402845070D+00 -.802569144512D-08
    -.216080429189D-09  .100000000000D+01  .175500000000D+04  .000000000000D+00
     .240000000000D+01  .000000000000D+00 -.977888703346D-08  .520000000000D+02
     .237606000000D+06  .400000000000D+01
 6 13  8 27 20  0  0.0  .239261426032D-04  .193267624127D-10  .000000000000D+00
     .690000000000D+02 -.239062500000D+02  .511021286088D-08 -.172589146663D+01
    -.141188502312D-05  .811189168599D-02  .771135091782D-05  .515367870331D+04
     .244800000000D+06 -.279396772385D-07  .207598134912D+01 -.180676579475D-06
     .941885149823D+00  .223343750000D+03 -.238649370921D+00 -.831998941810D-08
     .407874132452D-09  .100000000000D+01  .175500000000D+04  .000000000000D+00
     .240000000000D+01  .000000000000D+00 -.512227416039D-08  .690000000000D+02
     .237606000000D+06  .400000000000D+01
 7 13  8 27 20  0  0.0  .252098310739D-03  .420641299570D-11  .000000000000D+00
     .370000000000D+02 -.575000000000D+01  .416338770752D-08  .119444690679D+01
    -.230967998505D-06  .686082465108D-02  .499375164509D-05  .515367468452D+04
     .244800000000D+06 -.409781932831D-07  .676702367027D-01  .968575477600D-07
     .975315902988D+00  .290687500000D+03 -.289488941247D+01 -.806640742682D-08
    -.140005831805D-09  .100000000000D+01  .175500000000D+04  .000000000000D+00
     .240000000000D+01  .000000000000D+00 -.107102096081D-07  .370000000000D+02
     .237606000000D+06  .400000000000D+01
 9 13  8 27 20  0  0.0  .264295376837D-03  .272848410532D-11  .000000000000D+00
     .103000000000D+03 -.871875000000D+01  .385766068705D-08  .237142645614D+01
    -.454485416412D-06  .169321461581D-01  .439956784248D-05  .515372555161D+04
     .244800000000D+06  .193715095520D-06  .451162341065D-01 -.372529029846D-07
     .983921240635D+00  .301437500000D+03  .171925014917D+01 -.764889003554D-08
    -.164649715464D-09  .100000000000D+01  .175500000000D+04  .000000000000D+00
     .340000000000D+01  .000000000000D+00 -.558793544769D-08  .103000000000D+03
     .237606000000D+06  .400000000000D+01
